[{"OBJECT_NAME":"STARLINK-2180","OBJECT_ID":"2021-017AS","EPOCH":"2026-03-09T16:39:20.636640","MEAN_MOTION":15.38029481,"ECCENTRICITY":7.347e-5,"INCLINATION":53.1608,"RA_OF_ASC_NODE":219.0004,"ARG_OF_PERICENTER":49.2837,"MEAN_ANOMALY":310.823,"EPHEMERIS_TYPE":0,"CLASSIFICATION_TYPE":"U","NORAD_CAT_ID":47762,"ELEMENT_SET_NO":999,"REV_AT_EPOCH":27765,"BSTAR":0.00067692764,"MEAN_MOTION_DOT":0.00025397,"MEAN_MOTION_DDOT":0},{"OBJECT_NAME":"GLOBAL-5","OBJECT_ID":"2023-041C","EPOCH":"2026-03-09T09:52:06.984480","MEAN_MOTION":15.38177268,"ECCENTRICITY":0.00022192,"INCLINATION":42.0019,"RA_OF_ASC_NODE":63.5759,"ARG_OF_PERICENTER":343.4481,"MEAN_ANOMALY":16.6286,"EPHEMERIS_TYPE":0,"CLASSIFICATION_TYPE":"U","NORAD_CAT_ID":55983,"ELEMENT_SET_NO":999,"REV_AT_EPOCH":16656,"BSTAR":0.00050903717,"MEAN_MOTION_DOT":0.00019362,"MEAN_MOTION_DDOT":0}]
